{"type": "FeatureCollection", "features": [ {"type": "Feature", "properties": {"norad_id": 40664, "name": "SKY MEXICO-1", "group": "intelsat", "lat": -0.0039902546147742935, "lon": -148.72039720728796, "alt_km": 35783.727628338296, "timestamp": "2025-12-27T12:55:14.155095+00:00", "meta": {"OBJECT_NAME": "SKY MEXICO-1", "OBJECT_ID": "2015-026B", "EPOCH": "2025-12-27T05:53:19.892832", "MEAN_MOTION": 1.00271915, "ECCENTRICITY": 0.000255, "INCLINATION": 0.0093, "RA_OF_ASC_NODE": 33.9351, "ARG_OF_PERICENTER": 254.9051, "MEAN_ANOMALY": 176.7104, "EPHEMERIS_TYPE": 0, "CLASSIFICATION_TYPE": "U", "NORAD_CAT_ID": 40664, "ELEMENT_SET_NO": 999, "REV_AT_EPOCH": 3873, "BSTAR": 0, "MEAN_MOTION_DOT": -2.12e-06, "MEAN_MOTION_DDOT": 0}, "tle": {"line1": "1 40664U 15026B   25361.24536913 -.00000212  00000+0  00000+0 0  9998", "line2": "2 40664   0.0093  33.9351 0002550 254.9051 176.7104  1.00271915 38739"}}, "geometry": {"type": "Point", "coordinates": [-148.72039720728796, -0.0039902546147742935]}}, {"type": "Feature", "properties": {"norad_id": 40874, "name": "INTELSAT 34 (IS-34)", "group": "intelsat", "lat": -0.02746863673362856, "lon": -125.44496644011956, "alt_km": 35786.18896642369, "timestamp": "2025-12-27T12:55:14.155107+00:00", "meta": {"OBJECT_NAME": "INTELSAT 34 (IS-34)", "OBJECT_ID": "2015-039A", "EPOCH": "2025-12-26T01:50:17.564352", "MEAN_MOTION": 1.00269247, "ECCENTRICITY": 5.15e-05, "INCLINATION": 0.0147, "RA_OF_ASC_NODE": 340.5004, "ARG_OF_PERICENTER": 185.0401, "MEAN_ANOMALY": 261.3543, "EPHEMERIS_TYPE": 0, "CLASSIFICATION_TYPE": "U", "NORAD_CAT_ID": 40874, "ELEMENT_SET_NO": 999, "REV_AT_EPOCH": 3788, "BSTAR": 0, "MEAN_MOTION_DOT": -2.64e-06, "MEAN_MOTION_DDOT": 0}, "tle": {"line1": "1 40874U 15039A   25360.07659218 -.00000264  00000+0  00000+0 0  9996", "line2": "2 40874   0.0147 340.5004 0000515 185.0401 261.3543  1.00269247 37884"}}, "geometry": {"type": "Point", "coordinates": [-125.44496644011956, -0.02746863673362856]}}, {"type": "Feature", "properties": {"norad_id": 41581, "name": "INTELSAT 31 (IS-31)", "group": "intelsat", "lat": -0.010855093604389961, "lon": -165.02444261545725, "alt_km": 35778.85168475506, "timestamp": "2025-12-27T12:55:14.155119+00:00", "meta": {"OBJECT_NAME": "INTELSAT 31 (IS-31)", "OBJECT_ID": "2016-035A", "EPOCH": "2025-12-23T19:31:44.703840", "MEAN_MOTION": 1.00269658, "ECCENTRICITY": 0.0001926, "INCLINATION": 0.0283, "RA_OF_ASC_NODE": 262.055, "ARG_OF_PERICENTER": 303.365, "MEAN_ANOMALY": 85.0534, "EPHEMERIS_TYPE": 0, "CLASSIFICATION_TYPE": "U", "NORAD_CAT_ID": 41581, "ELEMENT_SET_NO": 999, "REV_AT_EPOCH": 3492, "BSTAR": 0, "MEAN_MOTION_DOT": -1.29e-06, "MEAN_MOTION_DDOT": 0}, "tle": {"line1": "1 41581U 16035A   25357.81371185 -.00000129  00000+0  00000+0 0  9991", "line2": "2 41581   0.0283 262.0550 0001926 303.3650  85.0534  1.00269658 34922"}}, "geometry": {"type": "Point", "coordinates": [-165.02444261545725, -0.010855093604389961]}}, {"type": "Feature", "properties": {"norad_id": 41747, "name": "INTELSAT 36 (IS-36)", "group": "intelsat", "lat": -0.0041969343371079226, "lon": -1.4389321552024146, "alt_km": 35785.603861528456, "timestamp": "2025-12-27T12:55:14.155132+00:00", "meta": {"OBJECT_NAME": "INTELSAT 36 (IS-36)", "OBJECT_ID": "2016-053A", "EPOCH": "2025-12-27T03:03:20.357280", "MEAN_MOTION": 1.00264918, "ECCENTRICITY": 8.535e-05, "INCLINATION": 0.0102, "RA_OF_ASC_NODE": 6.9586, "ARG_OF_PERICENTER": 303.4342, "MEAN_ANOMALY": 259.7991, "EPHEMERIS_TYPE": 0, "CLASSIFICATION_TYPE": "U", "NORAD_CAT_ID": 41747, "ELEMENT_SET_NO": 999, "REV_AT_EPOCH": 3422, "BSTAR": 0, "MEAN_MOTION_DOT": -1e-08, "MEAN_MOTION_DDOT": 0}, "tle": {"line1": "1 41747U 16053A   25361.12731895 -.00000001  00000+0  00000+0 0  9991", "line2": "2 41747   0.0102   6.9586 0000853 303.4342 259.7991  1.00264918 34221"}}, "geometry": {"type": "Point", "coordinates": [-1.4389321552024146, -0.0041969343371079226]}}, {"type": "Feature", "properties": {"norad_id": 41945, "name": "INTELSAT 32E (IS-32E)", "group": "intelsat", "lat": -0.00874107914778315, "lon": -113.1061533989679, "alt_km": 35785.84762975744, "timestamp": "2025-12-27T12:55:14.155143+00:00", "meta": {"OBJECT_NAME": "INTELSAT 32E (IS-32E)", "OBJECT_ID": "2017-007B", "EPOCH": "2025-12-27T04:14:10.684320", "MEAN_MOTION": 1.00273823, "ECCENTRICITY": 3.014e-05, "INCLINATION": 0.0262, "RA_OF_ASC_NODE": 75.2297, "ARG_OF_PERICENTER": 275.2972, "MEAN_ANOMALY": 125.7539, "EPHEMERIS_TYPE": 0, "CLASSIFICATION_TYPE": "U", "NORAD_CAT_ID": 41945, "ELEMENT_SET_NO": 999, "REV_AT_EPOCH": 3250, "BSTAR": 0, "MEAN_MOTION_DOT": -2.46e-06, "MEAN_MOTION_DDOT": 0}, "tle": {"line1": "1 41945U 17007B   25361.17651255 -.00000246  00000+0  00000+0 0  9998", "line2": "2 41945   0.0262  75.2297 0000301 275.2972 125.7539  1.00273823 32503"}}, "geometry": {"type": "Point", "coordinates": [-113.1061533989679, -0.00874107914778315]}}, {"type": "Feature", "properties": {"norad_id": 42818, "name": "INTELSAT 35E (IS-35E)", "group": "intelsat", "lat": -0.022678602850653515, "lon": -104.42924498524712, "alt_km": 35777.16785169536, "timestamp": "2025-12-27T12:55:14.155155+00:00", "meta": {"OBJECT_NAME": "INTELSAT 35E (IS-35E)", "OBJECT_ID": "2017-041A", "EPOCH": "2025-12-27T05:59:23.108064", "MEAN_MOTION": 1.00273326, "ECCENTRICITY": 0.00020846, "INCLINATION": 0.0169, "RA_OF_ASC_NODE": 44.8001, "ARG_OF_PERICENTER": 225.9533, "MEAN_ANOMALY": 240.5821, "EPHEMERIS_TYPE": 0, "CLASSIFICATION_TYPE": "U", "NORAD_CAT_ID": 42818, "ELEMENT_SET_NO": 999, "REV_AT_EPOCH": 3109, "BSTAR": 0, "MEAN_MOTION_DOT": -2.15e-06, "MEAN_MOTION_DDOT": 0}, "tle": {"line1": "1 42818U 17041A   25361.24957301 -.00000215  00000+0  00000+0 0  9991", "line2": "2 42818   0.0169  44.8001 0002084 225.9533 240.5821  1.00273326 31090"}}, "geometry": {"type": "Point", "coordinates": [-104.42924498524712, -0.022678602850653515]}}, {"type": "Feature", "properties": {"norad_id": 42950, "name": "INTELSAT 37E (IS-37E)", "group": "intelsat", "lat": -0.03357578355980433, "lon": -87.91578685170688, "alt_km": 35773.06541619124, "timestamp": "2025-12-27T12:55:14.155167+00:00", "meta": {"OBJECT_NAME": "INTELSAT 37E (IS-37E)", "OBJECT_ID": "2017-059A", "EPOCH": "2025-12-27T06:04:07.654368", "MEAN_MOTION": 1.0027135, "ECCENTRICITY": 0.00031396, "INCLINATION": 0.0183, "RA_OF_ASC_NODE": 31.0163, "ARG_OF_PERICENTER": 232.9411, "MEAN_ANOMALY": 265.0711, "EPHEMERIS_TYPE": 0, "CLASSIFICATION_TYPE": "U", "NORAD_CAT_ID": 42950, "ELEMENT_SET_NO": 999, "REV_AT_EPOCH": 3034, "BSTAR": 0, "MEAN_MOTION_DOT": -1.18e-06, "MEAN_MOTION_DDOT": 0}, "tle": {"line1": "1 42950U 17059A   25361.25286637 -.00000118  00000+0  00000+0 0  9997", "line2": "2 42950   0.0183  31.0163 0003139 232.9411 265.0711  1.00271350 30347"}}, "geometry": {"type": "Point", "coordinates": [-87.91578685170688, -0.03357578355980433]}}, {"type": "Feature", "properties": {"norad_id": 43632, "name": "AZERSPACE 2 (IS-38)", "group": "intelsat", "lat": -0.00038148859423019676, "lon": -24.803397153773872, "alt_km": 35782.52258974412, "timestamp": "2025-12-27T12:55:14.155178+00:00", "meta": {"OBJECT_NAME": "AZERSPACE 2 (IS-38)", "OBJECT_ID": "2018-074A", "EPOCH": "2025-12-27T04:39:23.270976", "MEAN_MOTION": 1.00270862, "ECCENTRICITY": 0.00015855, "INCLINATION": 0.0023, "RA_OF_ASC_NODE": 104.065, "ARG_OF_PERICENTER": 175.428, "MEAN_ANOMALY": 291.3955, "EPHEMERIS_TYPE": 0, "CLASSIFICATION_TYPE": "U", "NORAD_CAT_ID": 43632, "ELEMENT_SET_NO": 999, "REV_AT_EPOCH": 2672, "BSTAR": 0, "MEAN_MOTION_DOT": 1.59e-06, "MEAN_MOTION_DDOT": 0}, "tle": {"line1": "1 43632U 18074A   25361.19401934  .00000159  00000+0  00000+0 0  9999", "line2": "2 43632   0.0023 104.0650 0001585 175.4280 291.3955  1.00270862 26724"}}, "geometry": {"type": "Point", "coordinates": [-24.803397153773872, -0.00038148859423019676]}}, {"type": "Feature", "properties": {"norad_id": 43633, "name": "HORIZONS-3E", "group": "intelsat", "lat": -0.028019592840575057, "lon": 99.08822243623685, "alt_km": 35788.24852003521, "timestamp": "2025-12-27T12:55:14.155190+00:00", "meta": {"OBJECT_NAME": "HORIZONS-3E", "OBJECT_ID": "2018-074B", "EPOCH": "2025-12-26T17:15:43.848864", "MEAN_MOTION": 1.00274781, "ECCENTRICITY": 7.286e-05, "INCLINATION": 0.0491, "RA_OF_ASC_NODE": 194.9821, "ARG_OF_PERICENTER": 94.8605, "MEAN_ANOMALY": 233.5586, "EPHEMERIS_TYPE": 0, "CLASSIFICATION_TYPE": "U", "NORAD_CAT_ID": 43633, "ELEMENT_SET_NO": 999, "REV_AT_EPOCH": 2661, "BSTAR": 0, "MEAN_MOTION_DOT": -7e-08, "MEAN_MOTION_DDOT": 0}, "tle": {"line1": "1 43633U 18074B   25360.71925751 -.00000007  00000+0  00000+0 0  9998", "line2": "2 43633   0.0491 194.9821 0000728  94.8605 233.5586  1.00274781 26615"}}, "geometry": {"type": "Point", "coordinates": [99.08822243623685, -0.028019592840575057]}}, {"type": "Feature", "properties": {"norad_id": 44333, "name": "AT&T T-16", "group": "intelsat", "lat": 0.019807026973286856, "lon": -170.74689262401387, "alt_km": 35779.77503049197, "timestamp": "2025-12-27T12:55:14.155201+00:00", "meta": {"OBJECT_NAME": "AT&T T-16", "OBJECT_ID": "2019-034A", "EPOCH": "2025-12-26T09:24:01.437984", "MEAN_MOTION": 1.00280007, "ECCENTRICITY": 9.59e-05, "INCLINATION": 0.0209, "RA_OF_ASC_NODE": 69.0211, "ARG_OF_PERICENTER": 116.5883, "MEAN_ANOMALY": 309.683, "EPHEMERIS_TYPE": 0, "CLASSIFICATION_TYPE": "U", "NORAD_CAT_ID": 44333, "ELEMENT_SET_NO": 999, "REV_AT_EPOCH": 2390, "BSTAR": 0, "MEAN_MOTION_DOT": -9.5e-07, "MEAN_MOTION_DDOT": 0}, "tle": {"line1": "1 44333U 19034A   25360.39168331 -.00000095  00000+0  00000+0 0  9997", "line2": "2 44333   0.0209  69.0211 0000959 116.5883 309.6830  1.00280007 23905"}}, "geometry": {"type": "Point", "coordinates": [-170.74689262401387, 0.019807026973286856]}}]}